{"type": "FeatureCollection", "features": [ {"type": "Feature", "properties": {"norad_id": 34077, "name": "IRIDIUM 33 DEB", "group": "iridium-33-debris", "lat": -13.037924807826167, "lon": 51.4431996347887, "alt_km": 678.4011994391476, "timestamp": "2025-12-10T23:33:13.203038+00:00", "meta": {"OBJECT_NAME": "IRIDIUM 33 DEB", "OBJECT_ID": "1997-051CL", "EPOCH": "2025-12-10T05:52:42.153312", "MEAN_MOTION": 14.64781175, "ECCENTRICITY": 0.0010464, "INCLINATION": 86.3859, "RA_OF_ASC_NODE": 52.6061, "ARG_OF_PERICENTER": 47.385, "MEAN_ANOMALY": 18.7078, "EPHEMERIS_TYPE": 0, "CLASSIFICATION_TYPE": "U", "NORAD_CAT_ID": 34077, "ELEMENT_SET_NO": 999, "REV_AT_EPOCH": 88296, "BSTAR": 0.00232, "MEAN_MOTION_DOT": 0.00012409, "MEAN_MOTION_DDOT": 0}, "tle": {"line1": "1 34077U 97051CL  25344.24493233  .00012409  00000+0  23200-2 0  9995", "line2": "2 34077  86.3859  52.6061 0010464  47.3850  18.7078 14.64781175882962"}}, "geometry": {"type": "Point", "coordinates": [51.4431996347887, -13.037924807826167]}}, {"type": "Feature", "properties": {"norad_id": 34079, "name": "IRIDIUM 33 DEB", "group": "iridium-33-debris", "lat": -40.849527209451765, "lon": -167.39817432188508, "alt_km": 628.8418783256238, "timestamp": "2025-12-10T23:33:13.203047+00:00", "meta": {"OBJECT_NAME": "IRIDIUM 33 DEB", "OBJECT_ID": "1997-051CN", "EPOCH": "2025-12-10T01:46:30.105984", "MEAN_MOTION": 14.83410874, "ECCENTRICITY": 0.0005944, "INCLINATION": 86.3776, "RA_OF_ASC_NODE": 9.8742, "ARG_OF_PERICENTER": 16.6843, "MEAN_ANOMALY": 41.3467, "EPHEMERIS_TYPE": 0, "CLASSIFICATION_TYPE": "U", "NORAD_CAT_ID": 34079, "ELEMENT_SET_NO": 999, "REV_AT_EPOCH": 88938, "BSTAR": 0.0021846749, "MEAN_MOTION_DOT": 0.00017982, "MEAN_MOTION_DDOT": 0}, "tle": {"line1": "1 34079U 97051CN  25344.07395956  .00017982  00000+0  21847-2 0  9997", "line2": "2 34079  86.3776   9.8742 0005944  16.6843  41.3467 14.83410874889383"}}, "geometry": {"type": "Point", "coordinates": [-167.39817432188508, -40.849527209451765]}}, {"type": "Feature", "properties": {"norad_id": 34088, "name": "IRIDIUM 33 DEB", "group": "iridium-33-debris", "lat": -81.92569735433487, "lon": -121.99973398957042, "alt_km": 600.85136389531, "timestamp": "2025-12-10T23:33:13.203056+00:00", "meta": {"OBJECT_NAME": "IRIDIUM 33 DEB", "OBJECT_ID": "1997-051CX", "EPOCH": "2025-12-10T03:18:56.012256", "MEAN_MOTION": 14.91176406, "ECCENTRICITY": 0.00054818, "INCLINATION": 86.3845, "RA_OF_ASC_NODE": 31.9191, "ARG_OF_PERICENTER": 185.8656, "MEAN_ANOMALY": 232.9656, "EPHEMERIS_TYPE": 0, "CLASSIFICATION_TYPE": "U", "NORAD_CAT_ID": 34088, "ELEMENT_SET_NO": 999, "REV_AT_EPOCH": 88703, "BSTAR": 0.0035919602, "MEAN_MOTION_DOT": 0.0003583, "MEAN_MOTION_DDOT": 0}, "tle": {"line1": "1 34088U 97051CX  25344.13814829  .00035830  00000+0  35920-2 0  9998", "line2": "2 34088  86.3845  31.9191 0005481 185.8656 232.9656 14.91176406887038"}}, "geometry": {"type": "Point", "coordinates": [-121.99973398957042, -81.92569735433487]}}, {"type": "Feature", "properties": {"norad_id": 34091, "name": "IRIDIUM 33 DEB", "group": "iridium-33-debris", "lat": 31.186685280035523, "lon": -114.58153639819373, "alt_km": 643.1296760235464, "timestamp": "2025-12-10T23:33:13.203066+00:00", "meta": {"OBJECT_NAME": "IRIDIUM 33 DEB", "OBJECT_ID": "1997-051DA", "EPOCH": "2025-12-10T05:03:05.693184", "MEAN_MOTION": 14.81495206, "ECCENTRICITY": 0.003336, "INCLINATION": 86.3408, "RA_OF_ASC_NODE": 67.9914, "ARG_OF_PERICENTER": 302.3952, "MEAN_ANOMALY": 57.4043, "EPHEMERIS_TYPE": 0, "CLASSIFICATION_TYPE": "U", "NORAD_CAT_ID": 34091, "ELEMENT_SET_NO": 999, "REV_AT_EPOCH": 87829, "BSTAR": 0.0076077, "MEAN_MOTION_DOT": 0.00060664, "MEAN_MOTION_DDOT": 0}, "tle": {"line1": "1 34091U 97051DA  25344.21048256  .00060664  00000+0  76077-2 0  9995", "line2": "2 34091  86.3408  67.9914 0033360 302.3952  57.4043 14.81495206878290"}}, "geometry": {"type": "Point", "coordinates": [-114.58153639819373, 31.186685280035523]}}, {"type": "Feature", "properties": {"norad_id": 34097, "name": "IRIDIUM 33 DEB", "group": "iridium-33-debris", "lat": -26.621472992223673, "lon": 0.27482119780357595, "alt_km": 732.6552476055949, "timestamp": "2025-12-10T23:33:13.203075+00:00", "meta": {"OBJECT_NAME": "IRIDIUM 33 DEB", "OBJECT_ID": "1997-051DG", "EPOCH": "2025-12-10T11:57:33.314400", "MEAN_MOTION": 14.34747239, "ECCENTRICITY": 0.00828516, "INCLINATION": 86.2004, "RA_OF_ASC_NODE": 2.3968, "ARG_OF_PERICENTER": 9.4924, "MEAN_ANOMALY": 350.7813, "EPHEMERIS_TYPE": 0, "CLASSIFICATION_TYPE": "U", "NORAD_CAT_ID": 34097, "ELEMENT_SET_NO": 999, "REV_AT_EPOCH": 87087, "BSTAR": 0.0020371705, "MEAN_MOTION_DOT": 6.018e-05, "MEAN_MOTION_DDOT": 0}, "tle": {"line1": "1 34097U 97051DG  25344.49830225  .00006018  00000+0  20372-2 0  9996", "line2": "2 34097  86.2004   2.3968 0082851   9.4924 350.7813 14.34747239870876"}}, "geometry": {"type": "Point", "coordinates": [0.27482119780357595, -26.621472992223673]}}, {"type": "Feature", "properties": {"norad_id": 34145, "name": "IRIDIUM 33 DEB", "group": "iridium-33-debris", "lat": -16.461232236003326, "lon": 154.43128208707947, "alt_km": 760.6341262638643, "timestamp": "2025-12-10T23:33:13.203084+00:00", "meta": {"OBJECT_NAME": "IRIDIUM 33 DEB", "OBJECT_ID": "1997-051DY", "EPOCH": "2025-12-10T04:20:07.855008", "MEAN_MOTION": 14.42258512, "ECCENTRICITY": 0.0055658, "INCLINATION": 86.2123, "RA_OF_ASC_NODE": 333.6661, "ARG_OF_PERICENTER": 101.9259, "MEAN_ANOMALY": 258.8189, "EPHEMERIS_TYPE": 0, "CLASSIFICATION_TYPE": "U", "NORAD_CAT_ID": 34145, "ELEMENT_SET_NO": 999, "REV_AT_EPOCH": 87601, "BSTAR": 0.0015884, "MEAN_MOTION_DOT": 5.356e-05, "MEAN_MOTION_DDOT": 0}, "tle": {"line1": "1 34145U 97051DY  25344.18064647  .00005356  00000+0  15884-2 0  9999", "line2": "2 34145  86.2123 333.6661 0055658 101.9259 258.8189 14.42258512876012"}}, "geometry": {"type": "Point", "coordinates": [154.43128208707947, -16.461232236003326]}}, {"type": "Feature", "properties": {"norad_id": 34146, "name": "IRIDIUM 33 DEB", "group": "iridium-33-debris", "lat": 29.441000046812434, "lon": 168.47484560793762, "alt_km": 723.5579918703497, "timestamp": "2025-12-10T23:33:13.203094+00:00", "meta": {"OBJECT_NAME": "IRIDIUM 33 DEB", "OBJECT_ID": "1997-051DZ", "EPOCH": "2025-12-10T11:57:26.106912", "MEAN_MOTION": 14.49023045, "ECCENTRICITY": 0.00253067, "INCLINATION": 86.2837, "RA_OF_ASC_NODE": 350.7905, "ARG_OF_PERICENTER": 229.5827, "MEAN_ANOMALY": 282.1791, "EPHEMERIS_TYPE": 0, "CLASSIFICATION_TYPE": "U", "NORAD_CAT_ID": 34146, "ELEMENT_SET_NO": 999, "REV_AT_EPOCH": 88074, "BSTAR": 0.0014030186, "MEAN_MOTION_DOT": 5.363e-05, "MEAN_MOTION_DDOT": 0}, "tle": {"line1": "1 34146U 97051DZ  25344.49821883  .00005363  00000+0  14030-2 0  9997", "line2": "2 34146  86.2837 350.7905 0025306 229.5827 282.1791 14.49023045880743"}}, "geometry": {"type": "Point", "coordinates": [168.47484560793762, 29.441000046812434]}}, {"type": "Feature", "properties": {"norad_id": 34159, "name": "IRIDIUM 33 DEB", "group": "iridium-33-debris", "lat": -67.58045387454267, "lon": 40.093429109566294, "alt_km": 752.3246827506982, "timestamp": "2025-12-10T23:33:13.203106+00:00", "meta": {"OBJECT_NAME": "IRIDIUM 33 DEB", "OBJECT_ID": "1997-051EN", "EPOCH": "2025-12-10T10:30:41.699232", "MEAN_MOTION": 14.38484517, "ECCENTRICITY": 0.00259478, "INCLINATION": 86.3511, "RA_OF_ASC_NODE": 49.2228, "ARG_OF_PERICENTER": 295.9422, "MEAN_ANOMALY": 63.9102, "EPHEMERIS_TYPE": 0, "CLASSIFICATION_TYPE": "U", "NORAD_CAT_ID": 34159, "ELEMENT_SET_NO": 999, "REV_AT_EPOCH": 87926, "BSTAR": 0.00060754276, "MEAN_MOTION_DOT": 1.881e-05, "MEAN_MOTION_DDOT": 0}, "tle": {"line1": "1 34159U 97051EN  25344.43798263  .00001881  00000+0  60754-3 0  9996", "line2": "2 34159  86.3511  49.2228 0025947 295.9422  63.9102 14.38484517879263"}}, "geometry": {"type": "Point", "coordinates": [40.093429109566294, -67.58045387454267]}}, {"type": "Feature", "properties": {"norad_id": 34350, "name": "IRIDIUM 33 DEB", "group": "iridium-33-debris", "lat": -81.5909097376983, "lon": -22.180288604641994, "alt_km": 759.9946030791543, "timestamp": "2025-12-10T23:33:13.203115+00:00", "meta": {"OBJECT_NAME": "IRIDIUM 33 DEB", "OBJECT_ID": "1997-051ES", "EPOCH": "2025-12-10T12:52:02.617824", "MEAN_MOTION": 14.45379057, "ECCENTRICITY": 0.00226247, "INCLINATION": 86.3276, "RA_OF_ASC_NODE": 3.7635, "ARG_OF_PERICENTER": 142.0341, "MEAN_ANOMALY": 339.995, "EPHEMERIS_TYPE": 0, "CLASSIFICATION_TYPE": "U", "NORAD_CAT_ID": 34350, "ELEMENT_SET_NO": 999, "REV_AT_EPOCH": 88261, "BSTAR": 0.00047544154, "MEAN_MOTION_DOT": 1.696e-05, "MEAN_MOTION_DDOT": 0}, "tle": {"line1": "1 34350U 97051ES  25344.53614141  .00001696  00000+0  47544-3 0  9998", "line2": "2 34350  86.3276   3.7635 0022624 142.0341 339.9950 14.45379057882612"}}, "geometry": {"type": "Point", "coordinates": [-22.180288604641994, -81.5909097376983]}}, {"type": "Feature", "properties": {"norad_id": 34366, "name": "IRIDIUM 33 DEB", "group": "iridium-33-debris", "lat": -10.892233854258013, "lon": -129.22203036285038, "alt_km": 705.8361202027918, "timestamp": "2025-12-10T23:33:13.203125+00:00", "meta": {"OBJECT_NAME": "IRIDIUM 33 DEB", "OBJECT_ID": "1997-051FJ", "EPOCH": "2025-12-10T04:47:12.333120", "MEAN_MOTION": 14.54021911, "ECCENTRICITY": 0.0022308, "INCLINATION": 86.3691, "RA_OF_ASC_NODE": 50.4179, "ARG_OF_PERICENTER": 147.6537, "MEAN_ANOMALY": 272.451, "EPHEMERIS_TYPE": 0, "CLASSIFICATION_TYPE": "U", "NORAD_CAT_ID": 34366, "ELEMENT_SET_NO": 999, "REV_AT_EPOCH": 88145, "BSTAR": 0.0016468, "MEAN_MOTION_DOT": 6.988e-05, "MEAN_MOTION_DDOT": 0}, "tle": {"line1": "1 34366U 97051FJ  25344.19944830  .00006988  00000+0  16468-2 0  9997", "line2": "2 34366  86.3691  50.4179 0022308 147.6537 272.4510 14.54021911881456"}}, "geometry": {"type": "Point", "coordinates": [-129.22203036285038, -10.892233854258013]}}]}